EUTELSAT 21B            
1 38992U 12062B   25309.11087499  .00000142  00000+0  00000+0 0  9995
2 38992   0.0714 347.5221 0003100 251.5854 227.0321  1.00273125 47585
EUTELSAT 70B            
1 39020U 12069A   25309.04925468 -.00000032  00000+0  00000+0 0  9993
2 39020   0.0670   5.3546 0004341 216.7327 270.6974  1.00271855 47265
EUTELSAT 117 WEST A     
1 39122U 13012A   25309.27256375 -.00000001  00000+0  00000+0 0  9990
2 39122   0.0349  39.5759 0003419 199.2424 147.2885  1.00271371 46187
EUTELSAT 7B             
1 39163U 13022A   25309.03586374  .00000060  00000+0  00000+0 0  9999
2 39163   0.0728   8.8194 0003033 296.5480 119.1001  1.00272437 45709
EXPRESS-AT1             
1 39612U 14010A   25309.11772170  .00000091  00000+0  00000+0 0  9990
2 39612   0.0128 260.6831 0000447 225.9819  16.3498  1.00269918 42576
EXPRESS-AT2             
1 39613U 14010B   25308.85884988 -.00000269  00000+0  00000+0 0  9990
2 39613   0.0141 267.1688 0001831  18.0293 208.2189  1.00272072 42258
EUTELSAT 3B             
1 39773U 14030A   25309.10723497  .00000032  00000+0  00000+0 0  9992
2 39773   0.0783  33.6770 0004681 184.0382 228.5781  1.00271321 41825
EUTELSAT 115 WEST B     
1 40425U 15010B   25309.12472140 -.00000013  00000+0  00000+0 0  9995
2 40425   0.0171 102.6337 0000344 312.5498 279.4551  1.00271807 39147
